{"type":"FeatureCollection","name":"AGEB urbanas de Victoria de Durango — muestra continua para miniatura WebGIS","source":{"institution":"INEGI","product":"Marco Geoestadístico 2024","upc":"794551132173","edition":"2024","temporal_coverage":"2023-08-31/2024-08-31","cartographic_cut":"agosto de 2024","base_cartography":"Marco Geoestadístico, diciembre 2023","layers":["10a — Áreas Geoestadísticas Básicas urbanas","10e — Ejes de vialidad","10sip — Servicios puntuales"],"territory":"Durango (10), Durango (005), Victoria de Durango (0001)","download":"https://www.inegi.org.mx/contenidos/productos/prod_serv/contenidos/espanol/bvinegi/productos/geografia/marcogeo/794551132173/10_durango.zip"},"processing":{"selection":"42 AGEB contiguas, crecimiento desde el centroide del componente urbano principal","simplification":"coverage_simplify de Shapely, tolerancia 3 m","coordinates":"WGS84 (EPSG:4326), 6 decimales","demo_variables":"Valores sintéticos con autocorrelación espacial; no son estadísticas de INEGI"},"features":[{"type":"Feature","properties":{"kind":"ageb","cvegeo":"1000500010053","cve_ageb":"0053","municipio":"Durango","localidad":"Victoria de Durango","demo":{"participacion":52.4,"intensidad":45.5,"cobertura":79.4}},"geometry":{"type":"Polygon","coordinates":[[[-104.639604,24.041015],[-104.639918,24.040923],[-104.640508,24.040985],[-104.641752,24.041126],[-104.64302,24.041274],[-104.644234,24.041393],[-104.645314,24.041519],[-104.646409,24.041638],[-104.648597,24.04189],[-104.648721,24.04189],[-104.64925,24.042041],[-104.648733,24.042678],[-104.646636,24.04413],[-104.646127,24.044504],[-104.645224,24.045115],[-104.643525,24.046316],[-104.642402,24.0471],[-104.642102,24.046669],[-104.641918,24.046297],[-104.6415,24.046578],[-104.64109,24.045608],[-104.640767,24.044862],[-104.640708,24.044738],[-104.640326,24.043869],[-104.640112,24.043436],[-104.639884,24.042904],[-104.64039,24.042781],[-104.640201,24.042348],[-104.64,24.041864],[-104.639765,24.041347],[-104.639604,24.041015]]]}},{"type":"Feature","properties":{"kind":"ageb","cvegeo":"1000500010180","cve_ageb":"0180","municipio":"Durango","localidad":"Victoria de Durango","demo":{"participacion":69.5,"intensidad":60.0,"cobertura":58.8}},"geometry":{"type":"Polygon","coordinates":[[[-104.657403,24.034567],[-104.65726,24.033904],[-104.657177,24.033344],[-104.657062,24.032765],[-104.65701,24.032181],[-104.656845,24.031671],[-104.657998,24.031479],[-104.658508,24.031399],[-104.659029,24.031301],[-104.65954,24.031215],[-104.660022,24.031137],[-104.661277,24.030925],[-104.661917,24.030823],[-104.661956,24.030851],[-104.662435,24.030766],[-104.662952,24.030669],[-104.66416,24.030477],[-104.664139,24.029974],[-104.664124,24.029873],[-104.6641,24.029309],[-104.664095,24.028799],[-104.665583,24.028608],[-104.667081,24.028411],[-104.667159,24.028699],[-104.667337,24.029922],[-104.667431,24.031681],[-104.667417,24.031917],[-104.667508,24.032463],[-104.667627,24.033542],[-104.667721,24.034287],[-104.667781,24.034972],[-104.666984,24.035013],[-104.666636,24.035045],[-104.665744,24.035116],[-104.664488,24.035215],[-104.663439,24.035286],[-104.661053,24.035458],[-104.659963,24.035536],[-104.658904,24.03545],[-104.65848,24.035466],[-104.658051,24.035269],[-104.657747,24.035006],[-104.657403,24.034567]]]}},{"type":"Feature","properties":{"kind":"ageb","cvegeo":"1000500010208","cve_ageb":"0208","municipio":"Durango","localidad":"Victoria de Durango","demo":{"participacion":67.6,"intensidad":84.2,"cobertura":75.9}},"geometry":{"type":"Polygon","coordinates":[[[-104.648532,24.033531],[-104.648088,24.032004],[-104.647921,24.031475],[-104.647692,24.030579],[-104.648412,24.03041],[-104.65045,24.029917],[-104.650216,24.028972],[-104.650018,24.028114],[-104.649672,24.028173],[-104.649569,24.027398],[-104.649424,24.026525],[-104.650232,24.026412],[-104.650502,24.026372],[-104.651109,24.026288],[-104.651654,24.026217],[-104.651901,24.026181],[-104.652728,24.026076],[-104.652827,24.026799],[-104.653112,24.028641],[-104.653211,24.02926],[-104.653362,24.030141],[-104.653446,24.030684],[-104.653544,24.031162],[-104.653602,24.031521],[-104.653718,24.032163],[-104.653725,24.032263],[-104.65318,24.032389],[-104.653075,24.03242],[-104.652438,24.032581],[-104.651801,24.032736],[-104.651604,24.032788],[-104.649924,24.033203],[-104.64934,24.033338],[-104.648532,24.033531]]]}},{"type":"Feature","properties":{"kind":"ageb","cvegeo":"1000500010212","cve_ageb":"0212","municipio":"Durango","localidad":"Victoria de Durango","demo":{"participacion":61.9,"intensidad":79.2,"cobertura":81.5}},"geometry":{"type":"Polygon","coordinates":[[[-104.639005,24.033124],[-104.639732,24.032451],[-104.640127,24.032065],[-104.640606,24.031611],[-104.641035,24.03124],[-104.641946,24.03041],[-104.642674,24.029771],[-104.642974,24.029554],[-104.643269,24.029263],[-104.644371,24.028288],[-104.645224,24.027513],[-104.645822,24.026994],[-104.646014,24.026967],[-104.646457,24.026928],[-104.646856,24.02687],[-104.646938,24.026865],[-104.64743,24.026797],[-104.648448,24.02666],[-104.649424,24.026525],[-104.649569,24.027398],[-104.649672,24.028173],[-104.650018,24.028114],[-104.650216,24.028972],[-104.65045,24.029917],[-104.648412,24.03041],[-104.647692,24.030579],[-104.647921,24.031475],[-104.648088,24.032004],[-104.648532,24.033531],[-104.648709,24.033968],[-104.648784,24.034251],[-104.642216,24.033456],[-104.641292,24.033343],[-104.64065,24.033296],[-104.640226,24.033212],[-104.639751,24.033192],[-104.639005,24.033124]]]}},{"type":"Feature","properties":{"kind":"ageb","cvegeo":"1000500010227","cve_ageb":"0227","municipio":"Durango","localidad":"Victoria de Durango","demo":{"participacion":55.7,"intensidad":61.5,"cobertura":84.2}},"geometry":{"type":"Polygon","coordinates":[[[-104.631906,24.032387],[-104.63191,24.03227],[-104.631817,24.031782],[-104.631713,24.031095],[-104.631601,24.03038],[-104.631391,24.029031],[-104.631275,24.028344],[-104.63118,24.027644],[-104.631201,24.026978],[-104.632261,24.026945],[-104.632977,24.026931],[-104.633249,24.02692],[-104.633338,24.02699],[-104.633851,24.026969],[-104.633947,24.027016],[-104.635181,24.02702],[-104.641358,24.026881],[-104.642395,24.026897],[-104.642692,24.026893],[-104.643187,24.026903],[-104.643718,24.02691],[-104.644198,24.026929],[-104.644707,24.026945],[-104.645224,24.026969],[-104.645822,24.026994],[-104.645224,24.027513],[-104.644371,24.028288],[-104.643269,24.029263],[-104.642974,24.029554],[-104.642674,24.029771],[-104.641946,24.03041],[-104.641035,24.03124],[-104.640606,24.031611],[-104.640127,24.032065],[-104.639732,24.032451],[-104.639005,24.033124],[-104.637863,24.033005],[-104.636338,24.032853],[-104.634961,24.032724],[-104.634822,24.032698],[-104.633843,24.0326],[-104.632897,24.032486],[-104.631906,24.032387]]]}},{"type":"Feature","properties":{"kind":"ageb","cvegeo":"1000500010250","cve_ageb":"0250","municipio":"Durango","localidad":"Victoria de Durango","demo":{"participacion":59.7,"intensidad":47.6,"cobertura":54.5}},"geometry":{"type":"Polygon","coordinates":[[[-104.667081,24.028411],[-104.667044,24.028089],[-104.667012,24.027752],[-104.66698,24.027243],[-104.666842,24.026361],[-104.666623,24.025277],[-104.666377,24.023912],[-104.667315,24.023766],[-104.668379,24.023584],[-104.66906,24.023484],[-104.669747,24.02339],[-104.67054,24.023261],[-104.671215,24.023126],[-104.671904,24.023012],[-104.673265,24.022773],[-104.67396,24.022675],[-104.674153,24.024104],[-104.674174,24.024238],[-104.674278,24.025204],[-104.674476,24.026699],[-104.674612,24.027809],[-104.674636,24.02819],[-104.67409,24.028221],[-104.672544,24.028334],[-104.671695,24.028393],[-104.670905,24.028442],[-104.670286,24.028483],[-104.669711,24.028531],[-104.669086,24.028593],[-104.668253,24.028634],[-104.667159,24.028699],[-104.667081,24.028411]]]}},{"type":"Feature","properties":{"kind":"ageb","cvegeo":"1000500010265","cve_ageb":"0265","municipio":"Durango","localidad":"Victoria de Durango","demo":{"participacion":70.5,"intensidad":71.9,"cobertura":62.4}},"geometry":{"type":"Polygon","coordinates":[[[-104.655743,24.025599],[-104.657707,24.025298],[-104.658417,24.025198],[-104.659882,24.024932],[-104.661643,24.024666],[-104.664078,24.02429],[-104.664855,24.024163],[-104.665627,24.024029],[-104.666377,24.023912],[-104.666623,24.025277],[-104.666842,24.026361],[-104.66698,24.027243],[-104.667012,24.027752],[-104.667044,24.028089],[-104.667081,24.028411],[-104.665583,24.028608],[-104.664095,24.028799],[-104.6641,24.029309],[-104.664124,24.029873],[-104.664139,24.029974],[-104.66416,24.030477],[-104.662952,24.030669],[-104.662435,24.030766],[-104.661956,24.030851],[-104.661917,24.030823],[-104.661277,24.030925],[-104.660022,24.031137],[-104.65954,24.031215],[-104.659029,24.031301],[-104.658508,24.031399],[-104.657998,24.031479],[-104.656845,24.031671],[-104.656525,24.030002],[-104.65641,24.029349],[-104.656295,24.028666],[-104.656024,24.027097],[-104.655743,24.025599]]]}},{"type":"Feature","properties":{"kind":"ageb","cvegeo":"1000500010299","cve_ageb":"0299","municipio":"Durango","localidad":"Victoria de Durango","demo":{"participacion":58.2,"intensidad":58.3,"cobertura":58.0}},"geometry":{"type":"Polygon","coordinates":[[[-104.666377,24.023912],[-104.665627,24.024029],[-104.664855,24.024163],[-104.664078,24.02429],[-104.663962,24.023078],[-104.663944,24.021998],[-104.663977,24.021421],[-104.663996,24.020572],[-104.664009,24.020153],[-104.66403,24.019702],[-104.664058,24.019459],[-104.664005,24.018942],[-104.66389,24.01877],[-104.663712,24.017937],[-104.663644,24.017495],[-104.663355,24.015292],[-104.663344,24.015101],[-104.663903,24.014842],[-104.664187,24.01501],[-104.664231,24.015071],[-104.664565,24.014906],[-104.664882,24.015354],[-104.664943,24.015347],[-104.666369,24.015912],[-104.66783,24.016514],[-104.668723,24.016873],[-104.669123,24.017025],[-104.67056,24.017618],[-104.67028,24.018177],[-104.66993,24.018884],[-104.669417,24.019867],[-104.66939,24.02008],[-104.66948,24.020871],[-104.669608,24.022126],[-104.669671,24.022727],[-104.669747,24.02339],[-104.66906,24.023484],[-104.668379,24.023584],[-104.667315,24.023766],[-104.666377,24.023912]]]}},{"type":"Feature","properties":{"kind":"ageb","cvegeo":"1000500010301","cve_ageb":"0301","municipio":"Durango","localidad":"Victoria de Durango","demo":{"participacion":66.8,"intensidad":79.9,"cobertura":65.1}},"geometry":{"type":"Polygon","coordinates":[[[-104.652728,24.026076],[-104.651901,24.026181],[-104.651654,24.026217],[-104.651477,24.025027],[-104.651379,24.024308],[-104.651194,24.023187],[-104.652237,24.022982],[-104.652978,24.02286],[-104.654206,24.022644],[-104.655187,24.022469],[-104.65548,24.022423],[-104.656182,24.022308],[-104.657486,24.022054],[-104.657594,24.022066],[-104.657436,24.021491],[-104.658854,24.021431],[-104.658814,24.020979],[-104.658261,24.020984],[-104.658242,24.019862],[-104.658256,24.019363],[-104.658231,24.019073],[-104.660148,24.019545],[-104.66114,24.019734],[-104.66115,24.01983],[-104.661668,24.019806],[-104.66403,24.019702],[-104.664009,24.020153],[-104.663996,24.020572],[-104.663977,24.021421],[-104.663944,24.021998],[-104.663962,24.023078],[-104.664078,24.02429],[-104.661643,24.024666],[-104.659882,24.024932],[-104.658417,24.025198],[-104.657707,24.025298],[-104.655743,24.025599],[-104.655153,24.025669],[-104.654207,24.025813],[-104.653183,24.025981],[-104.652728,24.026076]]]}},{"type":"Feature","properties":{"kind":"ageb","cvegeo":"1000500010316","cve_ageb":"0316","municipio":"Durango","localidad":"Victoria de Durango","demo":{"participacion":65.5,"intensidad":86.2,"cobertura":75.3}},"geometry":{"type":"Polygon","coordinates":[[[-104.646489,24.023004],[-104.648384,24.022869],[-104.648897,24.022833],[-104.649391,24.022811],[-104.649529,24.023711],[-104.64979,24.023688],[-104.650035,24.023614],[-104.650338,24.023382],[-104.650499,24.023328],[-104.650862,24.023241],[-104.651194,24.023187],[-104.651379,24.024308],[-104.651477,24.025027],[-104.651654,24.026217],[-104.651109,24.026288],[-104.650502,24.026372],[-104.650232,24.026412],[-104.649424,24.026525],[-104.648448,24.02666],[-104.64743,24.026797],[-104.646938,24.026865],[-104.64675,24.025773],[-104.646644,24.024827],[-104.646615,24.024461],[-104.646577,24.023921],[-104.646489,24.023004]]]}},{"type":"Feature","properties":{"kind":"ageb","cvegeo":"1000500010320","cve_ageb":"0320","municipio":"Durango","localidad":"Victoria de Durango","demo":{"participacion":63.7,"intensidad":81.1,"cobertura":67.9}},"geometry":{"type":"Polygon","coordinates":[[[-104.651749,24.017422],[-104.652567,24.017647],[-104.65352,24.01788],[-104.654347,24.018106],[-104.655305,24.018341],[-104.656281,24.018606],[-104.657253,24.018838],[-104.658231,24.019073],[-104.658256,24.019363],[-104.658242,24.019862],[-104.658261,24.020984],[-104.658814,24.020979],[-104.658854,24.021431],[-104.657436,24.021491],[-104.657594,24.022066],[-104.657486,24.022054],[-104.656182,24.022308],[-104.65548,24.022423],[-104.655187,24.022469],[-104.654206,24.022644],[-104.652978,24.02286],[-104.652237,24.022982],[-104.651194,24.023187],[-104.651051,24.022225],[-104.650978,24.021363],[-104.650926,24.020852],[-104.650944,24.020645],[-104.65096,24.019826],[-104.65176,24.019831],[-104.651758,24.019207],[-104.65175,24.018894],[-104.651759,24.018677],[-104.651757,24.018424],[-104.651746,24.018114],[-104.651749,24.017422]]]}},{"type":"Feature","properties":{"kind":"ageb","cvegeo":"1000500010354","cve_ageb":"0354","municipio":"Durango","localidad":"Victoria de Durango","demo":{"participacion":58.8,"intensidad":65.5,"cobertura":81.4}},"geometry":{"type":"Polygon","coordinates":[[[-104.634,24.022918],[-104.634986,24.02287],[-104.636993,24.022781],[-104.63796,24.022785],[-104.638315,24.022773],[-104.638336,24.022981],[-104.639312,24.022876],[-104.639606,24.024415],[-104.641133,24.024318],[-104.64392,24.024118],[-104.643963,24.024206],[-104.644079,24.025018],[-104.644147,24.025452],[-104.644124,24.025467],[-104.644231,24.026187],[-104.644198,24.026929],[-104.643718,24.02691],[-104.643187,24.026903],[-104.642692,24.026893],[-104.642395,24.026897],[-104.641358,24.026881],[-104.635181,24.02702],[-104.633947,24.027016],[-104.63416,24.026818],[-104.634148,24.025612],[-104.634051,24.023814],[-104.634,24.022918]]]}},{"type":"Feature","properties":{"kind":"ageb","cvegeo":"1000500010369","cve_ageb":"0369","municipio":"Durango","localidad":"Victoria de Durango","demo":{"participacion":55.0,"intensidad":45.5,"cobertura":81.5}},"geometry":{"type":"Polygon","coordinates":[[[-104.633947,24.027016],[-104.633851,24.026969],[-104.633338,24.02699],[-104.633249,24.02692],[-104.632977,24.026931],[-104.632261,24.026945],[-104.631201,24.026978],[-104.629825,24.025812],[-104.628842,24.024951],[-104.62785,24.024089],[-104.627579,24.023884],[-104.627562,24.023198],[-104.627564,24.022286],[-104.627554,24.021412],[-104.627493,24.020677],[-104.627074,24.020863],[-104.627021,24.020529],[-104.626893,24.020505],[-104.628024,24.019821],[-104.62905,24.019842],[-104.629564,24.019322],[-104.630861,24.019277],[-104.631836,24.019244],[-104.632816,24.019221],[-104.633817,24.019189],[-104.633847,24.020065],[-104.63389,24.021098],[-104.634,24.022918],[-104.634051,24.023814],[-104.634148,24.025612],[-104.63416,24.026818],[-104.633947,24.027016]]]}},{"type":"Feature","properties":{"kind":"ageb","cvegeo":"1000500012149","cve_ageb":"2149","municipio":"Durango","localidad":"Victoria de Durango","demo":{"participacion":53.5,"intensidad":43.6,"cobertura":73.5}},"geometry":{"type":"Polygon","coordinates":[[[-104.645224,24.045115],[-104.646127,24.044504],[-104.646636,24.04413],[-104.648733,24.042678],[-104.64925,24.042041],[-104.651082,24.040777],[-104.651126,24.041115],[-104.651068,24.041271],[-104.651025,24.041436],[-104.650971,24.041752],[-104.650976,24.041947],[-104.650996,24.042176],[-104.651073,24.042413],[-104.651232,24.042792],[-104.651647,24.043421],[-104.651592,24.043517],[-104.65194,24.043863],[-104.652317,24.044179],[-104.652676,24.044513],[-104.65302,24.044861],[-104.653369,24.045195],[-104.653773,24.045625],[-104.653179,24.046076],[-104.652163,24.046857],[-104.651839,24.047125],[-104.651521,24.047403],[-104.651386,24.04747],[-104.650133,24.048335],[-104.649264,24.048993],[-104.649004,24.04915],[-104.648828,24.049241],[-104.648504,24.048835],[-104.648209,24.048446],[-104.647901,24.048069],[-104.647907,24.047988],[-104.64766,24.047668],[-104.64814,24.047335],[-104.647602,24.046488],[-104.64708,24.04568],[-104.646202,24.046309],[-104.645885,24.045889],[-104.645564,24.045517],[-104.645224,24.045115]]]}},{"type":"Feature","properties":{"kind":"ageb","cvegeo":"1000500012242","cve_ageb":"2242","municipio":"Durango","localidad":"Victoria de Durango","demo":{"participacion":59.8,"intensidad":43.8,"cobertura":57.4}},"geometry":{"type":"Polygon","coordinates":[[[-104.657865,24.039614],[-104.658471,24.039569],[-104.65891,24.039528],[-104.660822,24.039396],[-104.662893,24.039233],[-104.66355,24.039187],[-104.663841,24.039157],[-104.664528,24.039108],[-104.665363,24.039042],[-104.666563,24.038959],[-104.6671,24.038928],[-104.667347,24.039625],[-104.667543,24.040187],[-104.667866,24.041216],[-104.668263,24.042407],[-104.667638,24.042456],[-104.667164,24.042486],[-104.666694,24.042508],[-104.665708,24.042591],[-104.664669,24.042691],[-104.664162,24.042729],[-104.663709,24.042772],[-104.663741,24.043395],[-104.663274,24.043425],[-104.662782,24.043467],[-104.662259,24.043516],[-104.661362,24.043585],[-104.661092,24.043599],[-104.660091,24.043685],[-104.65824,24.043805],[-104.658156,24.042531],[-104.658058,24.041386],[-104.658011,24.040589],[-104.657865,24.039614]]]}},{"type":"Feature","properties":{"kind":"ageb","cvegeo":"1000500012276","cve_ageb":"2276","municipio":"Durango","localidad":"Victoria de Durango","demo":{"participacion":54.6,"intensidad":55.9,"cobertura":82.4}},"geometry":{"type":"Polygon","coordinates":[[[-104.639432,24.039581],[-104.639529,24.038928],[-104.640775,24.039095],[-104.640848,24.038454],[-104.640946,24.037867],[-104.642194,24.038013],[-104.642269,24.037393],[-104.642351,24.036784],[-104.643597,24.036928],[-104.643703,24.036214],[-104.644913,24.036353],[-104.646003,24.036471],[-104.645922,24.037196],[-104.64582,24.037806],[-104.64575,24.038422],[-104.645655,24.039011],[-104.645572,24.039641],[-104.645506,24.040255],[-104.645405,24.0409],[-104.645314,24.041519],[-104.644234,24.041393],[-104.64302,24.041274],[-104.641752,24.041126],[-104.640508,24.040985],[-104.639918,24.040923],[-104.639604,24.041015],[-104.639352,24.04035],[-104.639494,24.04036],[-104.63961,24.040247],[-104.6406,24.040345],[-104.64069,24.039722],[-104.639432,24.039581]]]}},{"type":"Feature","properties":{"kind":"ageb","cvegeo":"1000500012280","cve_ageb":"2280","municipio":"Durango","localidad":"Victoria de Durango","demo":{"participacion":53.2,"intensidad":54.3,"cobertura":84.7}},"geometry":{"type":"Polygon","coordinates":[[[-104.636517,24.035397],[-104.638228,24.035584],[-104.639924,24.035781],[-104.642456,24.036078],[-104.643703,24.036214],[-104.643597,24.036928],[-104.642351,24.036784],[-104.642269,24.037393],[-104.642194,24.038013],[-104.640946,24.037867],[-104.640848,24.038454],[-104.640775,24.039095],[-104.639529,24.038928],[-104.639432,24.039581],[-104.639425,24.03965],[-104.639063,24.039433],[-104.638052,24.038801],[-104.637908,24.038707],[-104.636964,24.038147],[-104.634916,24.036858],[-104.635892,24.035988],[-104.636517,24.035397]]]}},{"type":"Feature","properties":{"kind":"ageb","cvegeo":"100050001237A","cve_ageb":"237A","municipio":"Durango","localidad":"Victoria de Durango","demo":{"participacion":67.5,"intensidad":75.6,"cobertura":74.0}},"geometry":{"type":"Polygon","coordinates":[[[-104.648784,24.034251],[-104.648709,24.033968],[-104.648532,24.033531],[-104.64934,24.033338],[-104.649924,24.033203],[-104.651604,24.032788],[-104.651801,24.032736],[-104.652438,24.032581],[-104.653075,24.03242],[-104.65318,24.032389],[-104.653725,24.032263],[-104.653718,24.032163],[-104.654507,24.03204],[-104.65478,24.031987],[-104.65529,24.031899],[-104.655443,24.032563],[-104.65549,24.033023],[-104.655589,24.033578],[-104.65564,24.033839],[-104.655797,24.034454],[-104.655828,24.034641],[-104.655887,24.035065],[-104.654138,24.034859],[-104.653465,24.034791],[-104.65212,24.034633],[-104.651472,24.034567],[-104.650806,24.034484],[-104.65014,24.034414],[-104.649501,24.03434],[-104.648784,24.034251]]]}},{"type":"Feature","properties":{"kind":"ageb","cvegeo":"1000500012384","cve_ageb":"2384","municipio":"Durango","localidad":"Victoria de Durango","demo":{"participacion":70.8,"intensidad":81.5,"cobertura":70.5}},"geometry":{"type":"Polygon","coordinates":[[[-104.655887,24.035065],[-104.655828,24.034641],[-104.655797,24.034454],[-104.65564,24.033839],[-104.655589,24.033578],[-104.65549,24.033023],[-104.655443,24.032563],[-104.65529,24.031899],[-104.65478,24.031987],[-104.654507,24.03204],[-104.653718,24.032163],[-104.653602,24.031521],[-104.653544,24.031162],[-104.653446,24.030684],[-104.653362,24.030141],[-104.653211,24.02926],[-104.653112,24.028641],[-104.652827,24.026799],[-104.652728,24.026076],[-104.653183,24.025981],[-104.654207,24.025813],[-104.655153,24.025669],[-104.655743,24.025599],[-104.656024,24.027097],[-104.656295,24.028666],[-104.65641,24.029349],[-104.656525,24.030002],[-104.656845,24.031671],[-104.65701,24.032181],[-104.657062,24.032765],[-104.657177,24.033344],[-104.65726,24.033904],[-104.657403,24.034567],[-104.657235,24.034905],[-104.656993,24.035089],[-104.656622,24.035268],[-104.655887,24.035065]]]}},{"type":"Feature","properties":{"kind":"ageb","cvegeo":"1000500012399","cve_ageb":"2399","municipio":"Durango","localidad":"Victoria de Durango","demo":{"participacion":52.1,"intensidad":42.6,"cobertura":84.1}},"geometry":{"type":"Polygon","coordinates":[[[-104.631906,24.032387],[-104.63191,24.03227],[-104.631817,24.031782],[-104.631713,24.031095],[-104.631601,24.03038],[-104.631391,24.029031],[-104.631275,24.028344],[-104.63118,24.027644],[-104.631201,24.026978],[-104.630979,24.026956],[-104.629399,24.026993],[-104.628405,24.026999],[-104.62826,24.027003],[-104.627452,24.027013],[-104.627272,24.02812],[-104.627142,24.029037],[-104.626903,24.030813],[-104.626762,24.031832],[-104.627281,24.031877],[-104.628709,24.032053],[-104.629103,24.032092],[-104.629973,24.03217],[-104.630935,24.032284],[-104.631906,24.032387]]]}},{"type":"Feature","properties":{"kind":"ageb","cvegeo":"1000500012454","cve_ageb":"2454","municipio":"Durango","localidad":"Victoria de Durango","demo":{"participacion":62.8,"intensidad":78.8,"cobertura":71.4}},"geometry":{"type":"Polygon","coordinates":[[[-104.648384,24.022869],[-104.64824,24.02197],[-104.647904,24.019808],[-104.648089,24.019805],[-104.648086,24.01922],[-104.648073,24.018253],[-104.648073,24.018091],[-104.648061,24.017132],[-104.648065,24.016989],[-104.648043,24.016414],[-104.650044,24.016939],[-104.651749,24.017422],[-104.651746,24.018114],[-104.651757,24.018424],[-104.651759,24.018677],[-104.65175,24.018894],[-104.651758,24.019207],[-104.65176,24.019831],[-104.65096,24.019826],[-104.650944,24.020645],[-104.650926,24.020852],[-104.650978,24.021363],[-104.651051,24.022225],[-104.651194,24.023187],[-104.650862,24.023241],[-104.650499,24.023328],[-104.650338,24.023382],[-104.650035,24.023614],[-104.64979,24.023688],[-104.649529,24.023711],[-104.649391,24.022811],[-104.648897,24.022833],[-104.648384,24.022869]]]}},{"type":"Feature","properties":{"kind":"ageb","cvegeo":"1000500012469","cve_ageb":"2469","municipio":"Durango","localidad":"Victoria de Durango","demo":{"participacion":62.1,"intensidad":74.2,"cobertura":73.2}},"geometry":{"type":"Polygon","coordinates":[[[-104.645352,24.019865],[-104.645302,24.019064],[-104.645272,24.01852],[-104.645063,24.01623],[-104.645041,24.015832],[-104.645834,24.015854],[-104.646577,24.016052],[-104.646723,24.016091],[-104.647711,24.016323],[-104.648043,24.016414],[-104.648065,24.016989],[-104.648061,24.017132],[-104.648073,24.018091],[-104.648073,24.018253],[-104.648086,24.01922],[-104.648089,24.019805],[-104.647904,24.019808],[-104.64824,24.02197],[-104.648384,24.022869],[-104.646489,24.023004],[-104.646426,24.022112],[-104.645532,24.022174],[-104.645472,24.021457],[-104.645449,24.021121],[-104.645352,24.019865]]]}},{"type":"Feature","properties":{"kind":"ageb","cvegeo":"1000500012473","cve_ageb":"2473","municipio":"Durango","localidad":"Victoria de Durango","demo":{"participacion":63.1,"intensidad":79.9,"cobertura":77.3}},"geometry":{"type":"Polygon","coordinates":[[[-104.646938,24.026865],[-104.646856,24.02687],[-104.646457,24.026928],[-104.646014,24.026967],[-104.645822,24.026994],[-104.645224,24.026969],[-104.644707,24.026945],[-104.644198,24.026929],[-104.644231,24.026187],[-104.644124,24.025467],[-104.644147,24.025452],[-104.644079,24.025018],[-104.643963,24.024206],[-104.64392,24.024118],[-104.643891,24.024058],[-104.643808,24.023198],[-104.643744,24.022309],[-104.643686,24.021743],[-104.643554,24.020115],[-104.643529,24.019901],[-104.644343,24.019878],[-104.645352,24.019865],[-104.645449,24.021121],[-104.645472,24.021457],[-104.645532,24.022174],[-104.646426,24.022112],[-104.646489,24.023004],[-104.646577,24.023921],[-104.646615,24.024461],[-104.646644,24.024827],[-104.64675,24.025773],[-104.646938,24.026865]]]}},{"type":"Feature","properties":{"kind":"ageb","cvegeo":"1000500012488","cve_ageb":"2488","municipio":"Durango","localidad":"Victoria de Durango","demo":{"participacion":61.5,"intensidad":71.2,"cobertura":78.1}},"geometry":{"type":"Polygon","coordinates":[[[-104.64392,24.024118],[-104.641133,24.024318],[-104.639606,24.024415],[-104.639312,24.022876],[-104.640092,24.022787],[-104.640024,24.021939],[-104.640473,24.021882],[-104.640475,24.021403],[-104.640894,24.021343],[-104.640824,24.020504],[-104.640803,24.020312],[-104.640778,24.019947],[-104.641704,24.019931],[-104.642169,24.019925],[-104.642594,24.019902],[-104.643529,24.019901],[-104.643554,24.020115],[-104.643686,24.021743],[-104.643744,24.022309],[-104.643808,24.023198],[-104.643891,24.024058],[-104.64392,24.024118]]]}},{"type":"Feature","properties":{"kind":"ageb","cvegeo":"1000500012492","cve_ageb":"2492","municipio":"Durango","localidad":"Victoria de Durango","demo":{"participacion":58.1,"intensidad":69.7,"cobertura":64.9}},"geometry":{"type":"Polygon","coordinates":[[[-104.651749,24.017422],[-104.651756,24.017223],[-104.652996,24.016024],[-104.653333,24.015701],[-104.654416,24.014649],[-104.655051,24.014049],[-104.655636,24.013503],[-104.655729,24.01348],[-104.655488,24.01276],[-104.655398,24.012517],[-104.656304,24.012213],[-104.656876,24.012053],[-104.657106,24.012677],[-104.657436,24.013615],[-104.657756,24.014286],[-104.658016,24.014784],[-104.65837,24.015421],[-104.658752,24.016195],[-104.659681,24.017914],[-104.65926,24.018135],[-104.659246,24.018291],[-104.659236,24.018705],[-104.659669,24.01871],[-104.660107,24.018964],[-104.660154,24.019023],[-104.660117,24.019396],[-104.659212,24.01917],[-104.658217,24.018933],[-104.657257,24.018651],[-104.657253,24.018838],[-104.656281,24.018606],[-104.655305,24.018341],[-104.654347,24.018106],[-104.65352,24.01788],[-104.652567,24.017647],[-104.651749,24.017422]]]}},{"type":"Feature","properties":{"kind":"ageb","cvegeo":"1000500012505","cve_ageb":"2505","municipio":"Durango","localidad":"Victoria de Durango","demo":{"participacion":57.8,"intensidad":65.0,"cobertura":68.3}},"geometry":{"type":"Polygon","coordinates":[[[-104.64908,24.013413],[-104.650462,24.013436],[-104.651176,24.013424],[-104.652395,24.013437],[-104.652933,24.013447],[-104.653631,24.013209],[-104.653958,24.013088],[-104.654396,24.01292],[-104.6549,24.012723],[-104.655398,24.012517],[-104.655488,24.01276],[-104.655729,24.01348],[-104.655636,24.013503],[-104.655051,24.014049],[-104.654416,24.014649],[-104.653333,24.015701],[-104.652996,24.016024],[-104.651756,24.017223],[-104.651749,24.017422],[-104.650044,24.016939],[-104.648043,24.016414],[-104.647711,24.016323],[-104.646723,24.016091],[-104.646577,24.016052],[-104.646529,24.015813],[-104.646358,24.015291],[-104.646254,24.014446],[-104.647404,24.014363],[-104.647309,24.013391],[-104.64772,24.013398],[-104.648591,24.013407],[-104.648806,24.013401],[-104.64908,24.013413]]]}},{"type":"Feature","properties":{"kind":"ageb","cvegeo":"1000500012539","cve_ageb":"2539","municipio":"Durango","localidad":"Victoria de Durango","demo":{"participacion":62.0,"intensidad":44.0,"cobertura":52.2}},"geometry":{"type":"Polygon","coordinates":[[[-104.657865,24.039614],[-104.65787,24.039056],[-104.657833,24.038174],[-104.657788,24.037681],[-104.657774,24.037481],[-104.657641,24.035781],[-104.657977,24.035477],[-104.65848,24.035466],[-104.658904,24.03545],[-104.659963,24.035536],[-104.661053,24.035458],[-104.663439,24.035286],[-104.664488,24.035215],[-104.665744,24.035116],[-104.666636,24.035045],[-104.666984,24.035013],[-104.667781,24.034972],[-104.669272,24.034863],[-104.670565,24.034768],[-104.670964,24.034743],[-104.671509,24.034684],[-104.672378,24.034645],[-104.673347,24.034563],[-104.674016,24.034492],[-104.67456,24.034455],[-104.675404,24.034393],[-104.675573,24.034345],[-104.675873,24.034859],[-104.67615,24.035432],[-104.676224,24.035535],[-104.676632,24.036317],[-104.676213,24.036588],[-104.675938,24.036737],[-104.675816,24.036811],[-104.675741,24.036874],[-104.675663,24.036965],[-104.675596,24.037107],[-104.67559,24.037217],[-104.675611,24.037599],[-104.675655,24.037919],[-104.675688,24.038201],[-104.675639,24.038277],[-104.675587,24.038294],[-104.675059,24.038327],[-104.674054,24.038406],[-104.673356,24.038449],[-104.672192,24.038539],[-104.672256,24.039147],[-104.671602,24.039196],[-104.67163,24.039879],[-104.671033,24.039925],[-104.669792,24.040031],[-104.669176,24.040072],[-104.668006,24.040157],[-104.667543,24.040187],[-104.667347,24.039625],[-104.6671,24.038928],[-104.666563,24.038959],[-104.665363,24.039042],[-104.664528,24.039108],[-104.663841,24.039157],[-104.66355,24.039187],[-104.662893,24.039233],[-104.660822,24.039396],[-104.65891,24.039528],[-104.658471,24.039569],[-104.657865,24.039614]]]}},{"type":"Feature","properties":{"kind":"ageb","cvegeo":"1000500012543","cve_ageb":"2543","municipio":"Durango","localidad":"Victoria de Durango","demo":{"participacion":60.9,"intensidad":64.4,"cobertura":74.5}},"geometry":{"type":"Polygon","coordinates":[[[-104.643529,24.019901],[-104.642594,24.019902],[-104.642169,24.019925],[-104.641704,24.019931],[-104.640778,24.019947],[-104.640799,24.019402],[-104.64082,24.0186],[-104.640817,24.01821],[-104.640824,24.017186],[-104.640845,24.016743],[-104.640924,24.01675],[-104.640936,24.016149],[-104.640926,24.015694],[-104.642352,24.015744],[-104.645041,24.015832],[-104.645063,24.01623],[-104.645272,24.01852],[-104.645302,24.019064],[-104.645352,24.019865],[-104.644343,24.019878],[-104.643529,24.019901]]]}},{"type":"Feature","properties":{"kind":"ageb","cvegeo":"1000500012558","cve_ageb":"2558","municipio":"Durango","localidad":"Victoria de Durango","demo":{"participacion":59.5,"intensidad":56.9,"cobertura":78.1}},"geometry":{"type":"Polygon","coordinates":[[[-104.640778,24.019947],[-104.640803,24.020312],[-104.640824,24.020504],[-104.640894,24.021343],[-104.640475,24.021403],[-104.640473,24.021882],[-104.640024,24.021939],[-104.640092,24.022787],[-104.639312,24.022876],[-104.638336,24.022981],[-104.638315,24.022773],[-104.63796,24.022785],[-104.636993,24.022781],[-104.634986,24.02287],[-104.634,24.022918],[-104.63389,24.021098],[-104.633847,24.020065],[-104.633817,24.019189],[-104.633773,24.018356],[-104.633757,24.017879],[-104.633735,24.017443],[-104.634679,24.017818],[-104.636093,24.018313],[-104.636508,24.018211],[-104.636917,24.01793],[-104.637682,24.017135],[-104.638155,24.016063],[-104.638269,24.015818],[-104.638397,24.015693],[-104.638542,24.015612],[-104.640926,24.015694],[-104.640936,24.016149],[-104.640924,24.01675],[-104.640845,24.016743],[-104.640824,24.017186],[-104.640817,24.01821],[-104.64082,24.0186],[-104.640799,24.019402],[-104.640778,24.019947]]]}},{"type":"Feature","properties":{"kind":"ageb","cvegeo":"1000500012613","cve_ageb":"2613","municipio":"Durango","localidad":"Victoria de Durango","demo":{"participacion":58.2,"intensidad":54.7,"cobertura":72.3}},"geometry":{"type":"Polygon","coordinates":[[[-104.637371,24.01323],[-104.638845,24.013249],[-104.639031,24.013242],[-104.639539,24.013268],[-104.640025,24.013264],[-104.640289,24.013267],[-104.640757,24.013281],[-104.641139,24.013303],[-104.641993,24.013315],[-104.642218,24.013312],[-104.642658,24.013321],[-104.643202,24.013332],[-104.643741,24.013323],[-104.644328,24.01335],[-104.644786,24.01336],[-104.646187,24.013377],[-104.64669,24.011499],[-104.646552,24.011489],[-104.646579,24.011443],[-104.647106,24.010814],[-104.647677,24.010097],[-104.647945,24.010139],[-104.648257,24.01022],[-104.648774,24.01034],[-104.649246,24.010444],[-104.649062,24.010857],[-104.649994,24.011103],[-104.649745,24.011338],[-104.649692,24.011422],[-104.649703,24.012018],[-104.6492,24.011864],[-104.649142,24.012734],[-104.64908,24.013413],[-104.648806,24.013401],[-104.648591,24.013407],[-104.64772,24.013398],[-104.647309,24.013391],[-104.647404,24.014363],[-104.646254,24.014446],[-104.646358,24.015291],[-104.646529,24.015813],[-104.646577,24.016052],[-104.645834,24.015854],[-104.645041,24.015832],[-104.642352,24.015744],[-104.640926,24.015694],[-104.638542,24.015612],[-104.638397,24.015693],[-104.638269,24.015818],[-104.638155,24.016063],[-104.637682,24.017135],[-104.637529,24.016712],[-104.63747,24.015821],[-104.637413,24.014411],[-104.637389,24.013869],[-104.637371,24.01323]]]}},{"type":"Feature","properties":{"kind":"ageb","cvegeo":"1000500012774","cve_ageb":"2774","municipio":"Durango","localidad":"Victoria de Durango","demo":{"participacion":57.3,"intensidad":45.3,"cobertura":77.1}},"geometry":{"type":"Polygon","coordinates":[[[-104.632536,24.013386],[-104.633497,24.013322],[-104.633532,24.013739],[-104.634412,24.013687],[-104.634382,24.013199],[-104.634872,24.013199],[-104.635476,24.013204],[-104.637371,24.01323],[-104.637389,24.013869],[-104.637413,24.014411],[-104.63747,24.015821],[-104.637529,24.016712],[-104.637682,24.017135],[-104.636917,24.01793],[-104.636508,24.018211],[-104.636093,24.018313],[-104.634679,24.017818],[-104.633735,24.017443],[-104.633623,24.017408],[-104.632764,24.017536],[-104.632714,24.017004],[-104.632679,24.016294],[-104.632672,24.016079],[-104.632608,24.01519],[-104.632555,24.01427],[-104.632536,24.013386]]]}},{"type":"Feature","properties":{"kind":"ageb","cvegeo":"1000500012789","cve_ageb":"2789","municipio":"Durango","localidad":"Victoria de Durango","demo":{"participacion":54.7,"intensidad":46.7,"cobertura":70.2}},"geometry":{"type":"Polygon","coordinates":[[[-104.643624,24.006714],[-104.644128,24.006475],[-104.644722,24.006255],[-104.644984,24.006149],[-104.645281,24.006426],[-104.645837,24.00696],[-104.646201,24.007321],[-104.646526,24.007629],[-104.648151,24.009209],[-104.649471,24.010494],[-104.649246,24.010444],[-104.648774,24.01034],[-104.648257,24.01022],[-104.647945,24.010139],[-104.647677,24.010097],[-104.647106,24.010814],[-104.646579,24.011443],[-104.646552,24.011489],[-104.64669,24.011499],[-104.646187,24.013377],[-104.644786,24.01336],[-104.644328,24.01335],[-104.643741,24.013323],[-104.643202,24.013332],[-104.642658,24.013321],[-104.64308,24.011332],[-104.643213,24.010985],[-104.64331,24.01076],[-104.643567,24.010211],[-104.643865,24.00953],[-104.643889,24.009221],[-104.643682,24.007317],[-104.643624,24.006714]]]}},{"type":"Feature","properties":{"kind":"ageb","cvegeo":"1000500012793","cve_ageb":"2793","municipio":"Durango","localidad":"Victoria de Durango","demo":{"participacion":55.4,"intensidad":44.0,"cobertura":72.5}},"geometry":{"type":"Polygon","coordinates":[[[-104.638845,24.013249],[-104.639049,24.012218],[-104.639291,24.011063],[-104.639233,24.011061],[-104.639214,24.010118],[-104.639171,24.008847],[-104.639712,24.008596],[-104.640202,24.008363],[-104.64033,24.008308],[-104.640846,24.008066],[-104.640906,24.008027],[-104.641733,24.007634],[-104.642179,24.007443],[-104.642673,24.007213],[-104.64303,24.007035],[-104.643143,24.006994],[-104.643411,24.006835],[-104.643624,24.006714],[-104.643682,24.007317],[-104.643889,24.009221],[-104.643865,24.00953],[-104.643567,24.010211],[-104.64331,24.01076],[-104.643213,24.010985],[-104.64308,24.011332],[-104.642658,24.013321],[-104.642218,24.013312],[-104.641993,24.013315],[-104.641139,24.013303],[-104.640757,24.013281],[-104.640289,24.013267],[-104.640025,24.013264],[-104.639539,24.013268],[-104.639031,24.013242],[-104.638845,24.013249]]]}},{"type":"Feature","properties":{"kind":"ageb","cvegeo":"1000500012806","cve_ageb":"2806","municipio":"Durango","localidad":"Victoria de Durango","demo":{"participacion":55.4,"intensidad":40.1,"cobertura":75.6}},"geometry":{"type":"Polygon","coordinates":[[[-104.632536,24.013386],[-104.632483,24.012467],[-104.632425,24.011627],[-104.632414,24.010948],[-104.632394,24.01079],[-104.632362,24.010284],[-104.633386,24.010083],[-104.633688,24.009996],[-104.63378,24.009959],[-104.634609,24.009773],[-104.634722,24.009744],[-104.63585,24.009522],[-104.636094,24.009463],[-104.636269,24.009431],[-104.636942,24.009294],[-104.637653,24.00915],[-104.638073,24.009071],[-104.638558,24.008969],[-104.639004,24.008887],[-104.639171,24.008847],[-104.639214,24.010118],[-104.639233,24.011061],[-104.639291,24.011063],[-104.639049,24.012218],[-104.638845,24.013249],[-104.637371,24.01323],[-104.635476,24.013204],[-104.634872,24.013199],[-104.634382,24.013199],[-104.634412,24.013687],[-104.633532,24.013739],[-104.633497,24.013322],[-104.632536,24.013386]]]}},{"type":"Feature","properties":{"kind":"ageb","cvegeo":"1000500013679","cve_ageb":"3679","municipio":"Durango","localidad":"Victoria de Durango","demo":{"participacion":57.5,"intensidad":57.5,"cobertura":78.1}},"geometry":{"type":"Polygon","coordinates":[[[-104.645314,24.041519],[-104.645405,24.0409],[-104.645506,24.040255],[-104.645572,24.039641],[-104.645655,24.039011],[-104.64575,24.038422],[-104.64582,24.037806],[-104.646927,24.037933],[-104.648016,24.038057],[-104.649761,24.038247],[-104.649892,24.038303],[-104.649941,24.038428],[-104.650381,24.038485],[-104.651354,24.038606],[-104.651176,24.039991],[-104.651135,24.040375],[-104.651082,24.040777],[-104.64925,24.042041],[-104.648721,24.04189],[-104.648597,24.04189],[-104.646409,24.041638],[-104.645314,24.041519]]]}},{"type":"Feature","properties":{"kind":"ageb","cvegeo":"1000500013698","cve_ageb":"3698","municipio":"Durango","localidad":"Victoria de Durango","demo":{"participacion":61.0,"intensidad":70.0,"cobertura":80.0}},"geometry":{"type":"Polygon","coordinates":[[[-104.64582,24.037806],[-104.645922,24.037196],[-104.646003,24.036471],[-104.644913,24.036353],[-104.643703,24.036214],[-104.642456,24.036078],[-104.639924,24.035781],[-104.638228,24.035584],[-104.636517,24.035397],[-104.636662,24.035245],[-104.63748,24.034584],[-104.638107,24.033931],[-104.638335,24.033712],[-104.639005,24.033124],[-104.639751,24.033192],[-104.640226,24.033212],[-104.64065,24.033296],[-104.641292,24.033343],[-104.642216,24.033456],[-104.648784,24.034251],[-104.649501,24.03434],[-104.65014,24.034414],[-104.650806,24.034484],[-104.651472,24.034567],[-104.65212,24.034633],[-104.653465,24.034791],[-104.654138,24.034859],[-104.655887,24.035065],[-104.656622,24.035268],[-104.656993,24.035089],[-104.657235,24.034905],[-104.657403,24.034567],[-104.657747,24.035006],[-104.658051,24.035269],[-104.65848,24.035466],[-104.657977,24.035477],[-104.657641,24.035781],[-104.657774,24.037481],[-104.657788,24.037681],[-104.656263,24.037493],[-104.65458,24.03732],[-104.654615,24.037451],[-104.65423,24.037403],[-104.651528,24.037091],[-104.651474,24.03767],[-104.651354,24.038606],[-104.650381,24.038485],[-104.649941,24.038428],[-104.649892,24.038303],[-104.649761,24.038247],[-104.648016,24.038057],[-104.646927,24.037933],[-104.64582,24.037806]]]}},{"type":"Feature","properties":{"kind":"ageb","cvegeo":"1000500013787","cve_ageb":"3787","municipio":"Durango","localidad":"Victoria de Durango","demo":{"participacion":57.2,"intensidad":65.6,"cobertura":61.5}},"geometry":{"type":"Polygon","coordinates":[[[-104.658231,24.019073],[-104.657253,24.018838],[-104.657257,24.018651],[-104.658217,24.018933],[-104.659212,24.01917],[-104.660117,24.019396],[-104.660154,24.019023],[-104.660107,24.018964],[-104.659669,24.01871],[-104.659236,24.018705],[-104.659246,24.018291],[-104.65926,24.018135],[-104.659681,24.017914],[-104.658752,24.016195],[-104.65837,24.015421],[-104.658016,24.014784],[-104.657756,24.014286],[-104.657436,24.013615],[-104.657962,24.013154],[-104.658352,24.013918],[-104.658549,24.014353],[-104.660241,24.014131],[-104.661306,24.013986],[-104.662038,24.013899],[-104.663121,24.013741],[-104.663246,24.014581],[-104.663344,24.015101],[-104.663355,24.015292],[-104.663644,24.017495],[-104.663712,24.017937],[-104.66389,24.01877],[-104.664005,24.018942],[-104.664058,24.019459],[-104.66403,24.019702],[-104.661668,24.019806],[-104.66115,24.01983],[-104.66114,24.019734],[-104.660148,24.019545],[-104.658231,24.019073]]]}},{"type":"Feature","properties":{"kind":"ageb","cvegeo":"1000500013823","cve_ageb":"3823","municipio":"Durango","localidad":"Victoria de Durango","demo":{"participacion":51.8,"intensidad":52.1,"cobertura":61.5}},"geometry":{"type":"Polygon","coordinates":[[[-104.656876,24.012053],[-104.656659,24.011446],[-104.657239,24.011238],[-104.657216,24.010855],[-104.657179,24.010525],[-104.658075,24.010281],[-104.658905,24.010025],[-104.658767,24.009585],[-104.658623,24.009079],[-104.658436,24.00852],[-104.658263,24.008022],[-104.658045,24.007311],[-104.65803,24.007167],[-104.657621,24.006888],[-104.657945,24.006741],[-104.658648,24.007144],[-104.659209,24.007498],[-104.660604,24.008395],[-104.661423,24.008865],[-104.662282,24.00903],[-104.662473,24.008981],[-104.66258,24.009973],[-104.662629,24.010635],[-104.662634,24.010802],[-104.662822,24.011774],[-104.662971,24.01266],[-104.663049,24.013246],[-104.663121,24.013741],[-104.662038,24.013899],[-104.661306,24.013986],[-104.660241,24.014131],[-104.658549,24.014353],[-104.658352,24.013918],[-104.657962,24.013154],[-104.657436,24.013615],[-104.657106,24.012677],[-104.656876,24.012053]]]}},{"type":"Feature","properties":{"kind":"ageb","cvegeo":"1000500013857","cve_ageb":"3857","municipio":"Durango","localidad":"Victoria de Durango","demo":{"participacion":54.0,"intensidad":53.7,"cobertura":66.7}},"geometry":{"type":"Polygon","coordinates":[[[-104.649471,24.010494],[-104.650025,24.010589],[-104.65061,24.010671],[-104.650742,24.010409],[-104.65109,24.009738],[-104.651232,24.009419],[-104.651724,24.008436],[-104.651949,24.008031],[-104.653235,24.008235],[-104.653518,24.008274],[-104.653429,24.008708],[-104.653247,24.009649],[-104.653087,24.009728],[-104.653074,24.009892],[-104.653069,24.010414],[-104.653171,24.010679],[-104.653292,24.010692],[-104.653968,24.010505],[-104.653883,24.011091],[-104.653634,24.01106],[-104.653612,24.01221],[-104.653631,24.013209],[-104.652933,24.013447],[-104.652395,24.013437],[-104.651176,24.013424],[-104.650462,24.013436],[-104.64908,24.013413],[-104.649142,24.012734],[-104.6492,24.011864],[-104.649703,24.012018],[-104.649692,24.011422],[-104.649745,24.011338],[-104.649994,24.011103],[-104.649062,24.010857],[-104.649246,24.010444],[-104.649471,24.010494]]]}},{"type":"Feature","properties":{"kind":"ageb","cvegeo":"1000500013861","cve_ageb":"3861","municipio":"Durango","localidad":"Victoria de Durango","demo":{"participacion":51.8,"intensidad":50.2,"cobertura":64.0}},"geometry":{"type":"Polygon","coordinates":[[[-104.653518,24.008274],[-104.654058,24.008347],[-104.654632,24.0082],[-104.655013,24.008111],[-104.655565,24.00795],[-104.656171,24.007764],[-104.656468,24.007679],[-104.65725,24.007443],[-104.658045,24.007311],[-104.658263,24.008022],[-104.658436,24.00852],[-104.658623,24.009079],[-104.658767,24.009585],[-104.658905,24.010025],[-104.658075,24.010281],[-104.657179,24.010525],[-104.657216,24.010855],[-104.657239,24.011238],[-104.656659,24.011446],[-104.656876,24.012053],[-104.656304,24.012213],[-104.655398,24.012517],[-104.6549,24.012723],[-104.654396,24.01292],[-104.653958,24.013088],[-104.653631,24.013209],[-104.653612,24.01221],[-104.653634,24.01106],[-104.653883,24.011091],[-104.653968,24.010505],[-104.653292,24.010692],[-104.653171,24.010679],[-104.653069,24.010414],[-104.653074,24.009892],[-104.653087,24.009728],[-104.653247,24.009649],[-104.653429,24.008708],[-104.653518,24.008274]]]}},{"type":"Feature","properties":{"kind":"ageb","cvegeo":"1000500013895","cve_ageb":"3895","municipio":"Durango","localidad":"Victoria de Durango","demo":{"participacion":52.0,"intensidad":42.8,"cobertura":67.9}},"geometry":{"type":"Polygon","coordinates":[[[-104.651949,24.008031],[-104.651724,24.008436],[-104.651232,24.009419],[-104.65109,24.009738],[-104.650742,24.010409],[-104.65061,24.010671],[-104.650025,24.010589],[-104.649471,24.010494],[-104.648151,24.009209],[-104.646526,24.007629],[-104.646201,24.007321],[-104.645837,24.00696],[-104.645281,24.006426],[-104.644984,24.006149],[-104.645449,24.006003],[-104.645793,24.005829],[-104.646123,24.005656],[-104.647179,24.005121],[-104.647944,24.004725],[-104.648313,24.005251],[-104.648446,24.005339],[-104.648866,24.005517],[-104.649685,24.005872],[-104.650039,24.006023],[-104.649695,24.006716],[-104.649415,24.007268],[-104.649992,24.007523],[-104.650103,24.007567],[-104.6508,24.007871],[-104.651365,24.007952],[-104.651949,24.008031]]]}},{"type":"Feature","properties":{"kind":"ageb","cvegeo":"1000500015162","cve_ageb":"5162","municipio":"Durango","localidad":"Victoria de Durango","demo":{"participacion":61.6,"intensidad":57.5,"cobertura":71.2}},"geometry":{"type":"Polygon","coordinates":[[[-104.651082,24.040777],[-104.651135,24.040375],[-104.651176,24.039991],[-104.651354,24.038606],[-104.651474,24.03767],[-104.651528,24.037091],[-104.65423,24.037403],[-104.654615,24.037451],[-104.65458,24.03732],[-104.656263,24.037493],[-104.657788,24.037681],[-104.657833,24.038174],[-104.65787,24.039056],[-104.657283,24.039421],[-104.656509,24.039949],[-104.656109,24.040226],[-104.655706,24.040494],[-104.654995,24.040977],[-104.654271,24.041493],[-104.652802,24.042497],[-104.652459,24.042785],[-104.65196,24.043168],[-104.651647,24.043421],[-104.651232,24.042792],[-104.651073,24.042413],[-104.650996,24.042176],[-104.650976,24.041947],[-104.650971,24.041752],[-104.651025,24.041436],[-104.651068,24.041271],[-104.651126,24.041115],[-104.651082,24.040777]]]}},{"type":"Feature","properties":{"kind":"road","name":"Dolores del Río","road_type":"Boulevard"},"geometry":{"type":"MultiLineString","coordinates":[[[-104.669844,24.020143],[-104.667904,24.019924],[-104.666822,24.019892],[-104.665828,24.019752],[-104.664808,24.01965],[-104.664484,24.019593],[-104.664058,24.019459],[-104.662919,24.019406],[-104.662692,24.019365],[-104.660117,24.019396],[-104.658217,24.018933],[-104.656294,24.0184],[-104.654365,24.017941],[-104.651172,24.01704],[-104.646529,24.015813],[-104.645765,24.015655],[-104.645009,24.015616]],[[-104.66115,24.01983],[-104.66114,24.019734],[-104.660148,24.019545],[-104.656281,24.018606],[-104.652567,24.017647],[-104.650044,24.016939],[-104.647711,24.016323],[-104.645834,24.015854],[-104.645041,24.015832]]]}},{"type":"Feature","properties":{"kind":"road","name":"Coronel Enrique Carrola Antuna","road_type":"Avenida"},"geometry":{"type":"LineString","coordinates":[[-104.667923,24.020149],[-104.66403,24.019702],[-104.660151,24.019876],[-104.648089,24.019805],[-104.632707,24.020079],[-104.628466,24.020238],[-104.626675,24.021044]]}},{"type":"Feature","properties":{"kind":"road","name":"Jesús García","road_type":"Avenida"},"geometry":{"type":"MultiLineString","coordinates":[[[-104.657788,24.037681],[-104.63612,24.035186]],[[-104.654615,24.037451],[-104.635968,24.03533]]]}},{"type":"Feature","properties":{"kind":"road","name":"Felipe Pescador","road_type":"Boulevard"},"geometry":{"type":"MultiLineString","coordinates":[[[-104.675573,24.034345],[-104.675404,24.034393],[-104.672378,24.034645],[-104.671509,24.034684],[-104.670964,24.034743],[-104.659963,24.035536],[-104.658904,24.03545],[-104.65848,24.035466],[-104.658205,24.03524],[-104.657862,24.035144],[-104.657573,24.035027],[-104.6571,24.035085]],[[-104.657977,24.035477],[-104.657528,24.035871],[-104.657015,24.035389],[-104.656622,24.035268]],[[-104.6571,24.035085],[-104.657256,24.034962],[-104.657375,24.03475],[-104.657403,24.034567]],[[-104.6571,24.035085],[-104.656622,24.035268]],[[-104.656622,24.035268],[-104.655887,24.035065],[-104.649501,24.03434],[-104.641292,24.033343],[-104.64065,24.033296],[-104.640226,24.033212],[-104.639005,24.033124]]]}},{"type":"Feature","properties":{"kind":"road","name":"20 de Noviembre","road_type":"Avenida"},"geometry":{"type":"LineString","coordinates":[[-104.674174,24.024238],[-104.673432,24.024197],[-104.673126,24.024208],[-104.671324,24.024348],[-104.669914,24.024625],[-104.66857,24.024937],[-104.643269,24.029263]]}},{"type":"Feature","properties":{"kind":"road","name":"General Guadalupe Victoria","road_type":"Boulevard"},"geometry":{"type":"LineString","coordinates":[[-104.657865,24.039614],[-104.675587,24.038294],[-104.675639,24.038277],[-104.675688,24.038201],[-104.67559,24.037217],[-104.675596,24.037107],[-104.675663,24.036965],[-104.675816,24.036811],[-104.676632,24.036317]]}},{"type":"Feature","properties":{"kind":"poi","name":"Museo de la Ciudad","poi_type":"Palacio de Gobierno"},"geometry":{"type":"Point","coordinates":[-104.669062,24.024621]}},{"type":"Feature","properties":{"kind":"poi","name":"Hospital San Carlos","poi_type":"Hospital"},"geometry":{"type":"Point","coordinates":[-104.649325,24.019421]}},{"type":"Feature","properties":{"kind":"poi","name":"Centro de Salud Azcapotzalco","poi_type":"Centro de Salud"},"geometry":{"type":"Point","coordinates":[-104.656559,24.015651]}},{"type":"Feature","properties":{"kind":"poi","name":"Nezahualcóyotl","poi_type":"Jardín"},"geometry":{"type":"Point","coordinates":[-104.66248,24.012319]}}]}