{"type":"FeatureCollection","source":"Shapefile municipal proporcionado por el usuario; geometría simplificada únicamente para contexto web.","features":[{"type":"Feature","properties":{"kind":"state","name":"Durango"},"geometry":{"type":"Polygon","coordinates":[[[-104.08,22.769],[-104.225,22.778],[-104.32,22.443],[-104.507,22.346],[-104.734,22.64],[-104.961,22.524],[-105.047,22.666],[-104.904,22.734],[-105.001,22.969],[-105.323,22.948],[-105.427,23.119],[-105.642,23.141],[-105.795,23.623],[-105.892,23.568],[-105.896,24.037],[-106.155,24.341],[-106.582,24.316],[-106.686,24.661],[-107.131,25.051],[-107.193,25.495],[-106.942,25.651],[-106.659,25.54],[-106.52,25.694],[-106.42,26.119],[-106.49,26.279],[-106.392,26.237],[-106.055,26.835],[-105.472,26.508],[-105.072,26.456],[-105.29,26.195],[-104.921,26.55],[-104.528,26.262],[-104.564,26.35],[-104.249,26.827],[-103.37,26.579],[-103.261,26.285],[-103.395,25.884],[-103.338,25.707],[-103.465,25.562],[-103.335,25.372],[-103.462,25.375],[-103.504,25.268],[-103.137,24.833],[-102.878,24.749],[-103.032,24.679],[-102.843,24.734],[-102.677,25.078],[-102.527,24.848],[-102.535,24.396],[-103.152,24.459],[-103.867,24.062],[-103.781,24.065],[-103.899,23.834],[-103.849,23.863],[-103.841,23.703],[-104.173,23.144],[-104.08,22.769]],[[-105.29,26.195],[-105.22,26.136],[-104.922,25.971],[-105.29,26.195]],[[-104.796,25.598],[-104.75,25.581],[-104.922,25.971],[-104.796,25.598]],[[-103.841,23.703],[-104.124,23.623],[-104.411,23.764],[-104.236,23.632],[-104.277,23.545],[-103.841,23.703]],[[-104.304,24.012],[-104.395,23.962],[-104.413,23.763],[-104.411,23.764],[-104.304,24.012]],[[-104.284,23.598],[-104.346,23.622],[-104.277,23.545],[-104.284,23.598]],[[-104.366,23.205],[-104.338,23.199],[-104.339,23.293],[-104.366,23.205]],[[-106.017,26.364],[-106.015,26.365],[-106.022,26.368],[-106.017,26.364]],[[-105.877,26.45],[-105.95,26.207],[-105.806,26.517],[-106.003,26.372],[-105.877,26.45]],[[-105.579,26.315],[-105.782,26.535],[-105.788,26.53],[-105.579,26.315]],[[-105.221,25.702],[-105.355,26.071],[-105.378,26.095],[-105.221,25.702]],[[-105.102,25.699],[-105.111,25.743],[-105.221,25.702],[-105.102,25.699]],[[-104.587,25.966],[-104.477,26.137],[-104.495,26.182],[-104.587,25.966]],[[-104.458,25.85],[-104.455,25.854],[-104.541,25.925],[-104.458,25.85]],[[-104.74,25.577],[-104.63,25.537],[-104.58,25.706],[-104.74,25.577]],[[-104.654,25.396],[-104.39,25.222],[-104.326,25.276],[-104.609,25.5],[-104.654,25.396]],[[-104.357,25.026],[-104.596,24.958],[-104.199,25.029],[-104.357,25.026]],[[-104.65,25.039],[-104.666,24.823],[-104.596,24.958],[-104.65,25.039]],[[-104.525,24.388],[-104.441,24.439],[-104.457,24.46],[-104.525,24.388]],[[-104.24,24.33],[-104.164,24.375],[-104.184,24.432],[-104.24,24.33]],[[-104.131,24.225],[-104.131,24.225],[-104.131,24.226],[-104.131,24.225]],[[-104.242,24.045],[-104.227,24.034],[-104.214,24.06],[-104.242,24.045]],[[-105.536,25.913],[-105.515,25.809],[-105.389,26.107],[-105.536,25.913]],[[-106.869,25.382],[-106.726,25.459],[-106.693,25.502],[-106.869,25.382]],[[-106.873,25.129],[-106.886,25.197],[-106.892,25.132],[-106.873,25.129]],[[-106.755,25.135],[-106.647,25.226],[-106.819,25.119],[-106.755,25.135]],[[-106.608,24.964],[-106.63,24.953],[-106.528,24.704],[-106.608,24.964]],[[-106.197,24.729],[-106.204,24.798],[-106.098,24.784],[-106.072,24.851],[-106.528,24.704],[-106.197,24.729]],[[-105.429,24.628],[-105.616,24.623],[-105.977,24.501],[-105.429,24.628]],[[-106.158,24.554],[-106.158,24.544],[-105.977,24.501],[-106.158,24.554]],[[-105.363,24.63],[-105.363,24.63],[-105.5,24.531],[-105.363,24.63]],[[-105.316,24.761],[-105.277,24.632],[-105.03,24.558],[-105.316,24.761]],[[-105.034,25.116],[-105.029,25.129],[-105.316,24.761],[-105.034,25.116]],[[-105.054,25.172],[-105.027,25.136],[-105.012,25.176],[-105.054,25.172]],[[-104.723,25.148],[-104.764,25.2],[-104.873,25.189],[-104.723,25.148]],[[-105.341,24.335],[-105.283,24.263],[-105.248,24.306],[-105.341,24.335]],[[-105.099,24.411],[-104.872,24.333],[-105.091,24.417],[-105.099,24.411]],[[-105.564,23.948],[-105.636,23.956],[-105.687,23.783],[-105.564,23.948]],[[-105.537,23.945],[-105.356,23.795],[-105.498,23.947],[-105.537,23.945]],[[-105.237,23.572],[-105.176,23.551],[-105.305,23.877],[-105.237,23.572]],[[-105.1,23.526],[-104.827,23.433],[-104.797,23.495],[-105.1,23.526]],[[-104.446,23.61],[-104.462,23.628],[-104.514,23.587],[-104.446,23.61]],[[-104.54,23.719],[-104.55,23.716],[-104.532,23.71],[-104.54,23.719]],[[-104.799,23.166],[-104.803,23.141],[-104.796,23.146],[-104.799,23.166]],[[-105.473,24.135],[-105.49,24.004],[-105.349,24.181],[-105.473,24.135]],[[-105.0,25.089],[-104.722,24.845],[-104.956,24.755],[-104.688,24.8],[-104.739,24.943],[-105.0,25.089]],[[-105.563,25.608],[-106.179,25.769],[-105.526,25.58],[-105.563,25.608]],[[-105.42,25.402],[-105.428,25.41],[-105.446,25.38],[-105.42,25.402]],[[-106.233,25.165],[-106.229,25.193],[-106.255,25.185],[-106.233,25.165]],[[-106.16,25.098],[-106.14,25.098],[-106.175,25.112],[-106.16,25.098]],[[-106.216,25.316],[-106.213,25.304],[-106.211,25.314],[-106.216,25.316]],[[-104.726,25.341],[-104.711,25.352],[-105.056,25.504],[-104.726,25.341]],[[-105.064,25.508],[-105.065,25.512],[-105.065,25.509],[-105.064,25.508]],[[-105.953,26.199],[-105.953,26.198],[-105.752,26.002],[-105.953,26.199]],[[-105.661,25.891],[-105.655,25.839],[-105.627,25.864],[-105.661,25.891]],[[-104.316,24.696],[-104.316,24.711],[-104.305,24.669],[-104.316,24.696]],[[-104.244,24.596],[-104.258,24.591],[-104.219,24.527],[-104.244,24.596]],[[-104.035,24.665],[-104.091,24.646],[-104.018,24.571],[-104.035,24.665]],[[-103.807,24.769],[-103.971,24.523],[-103.963,24.515],[-103.807,24.769]],[[-104.002,24.888],[-103.959,24.969],[-104.067,24.996],[-103.959,24.8],[-103.807,24.769],[-104.002,24.888]],[[-103.762,25.234],[-103.785,25.4],[-103.9,25.083],[-103.797,25.279],[-103.762,25.234]],[[-103.717,25.176],[-103.539,25.225],[-103.734,25.198],[-103.717,25.176]],[[-103.404,25.075],[-103.435,25.076],[-103.406,25.007],[-103.404,25.075]],[[-103.146,24.487],[-103.132,24.55],[-103.408,24.781],[-103.409,24.78],[-103.146,24.487]],[[-103.9,24.318],[-103.96,24.122],[-104.068,24.187],[-103.963,24.058],[-103.9,24.318]],[[-103.949,23.819],[-103.915,23.825],[-104.191,23.902],[-103.949,23.819]],[[-104.026,24.396],[-103.924,24.381],[-103.949,24.452],[-104.026,24.396]],[[-103.418,24.743],[-103.448,24.627],[-103.429,24.623],[-103.418,24.743]],[[-104.183,25.493],[-104.18,25.494],[-104.181,25.497],[-104.183,25.493]],[[-103.978,25.549],[-104.16,25.54],[-103.949,25.461],[-103.978,25.549]],[[-104.188,25.317],[-104.146,25.329],[-104.149,25.344],[-104.188,25.317]],[[-103.941,25.753],[-103.66,25.74],[-103.653,25.752],[-103.941,25.753]],[[-104.137,25.745],[-104.137,25.746],[-104.259,25.719],[-104.137,25.745]],[[-104.324,25.868],[-104.371,25.824],[-104.259,25.719],[-104.324,25.868]],[[-103.57,25.884],[-103.57,25.884],[-103.57,25.884],[-103.57,25.884]]]}}},{"type":"Feature","properties":{"kind":"municipality","cve_mun":"001","name":"Canatlán"},"geometry":{"type":"Polygon","coordinates":[[[-104.722,24.845],[-104.446,24.471],[-104.586,24.324],[-104.844,24.204],[-104.872,24.333],[-105.091,24.417],[-105.23,24.3],[-105.46,24.372],[-105.5,24.531],[-105.335,24.65],[-105.03,24.558],[-104.956,24.755],[-104.722,24.845]]]}}},{"type":"Feature","properties":{"kind":"municipality","cve_mun":"002","name":"Canelas"},"geometry":{"type":"Polygon","coordinates":[[[-106.647,25.226],[-106.264,25.193],[-106.114,25.056],[-106.345,25.091],[-106.64,24.948],[-106.755,25.135],[-106.647,25.226]]]}}},{"type":"Feature","properties":{"kind":"municipality","cve_mun":"003","name":"Coneto de Comonfort"},"geometry":{"type":"Polygon","coordinates":[[[-104.994,25.222],[-104.643,25.127],[-104.671,24.752],[-104.739,24.943],[-105.037,25.11],[-104.994,25.222]]]}}},{"type":"Feature","properties":{"kind":"municipality","cve_mun":"004","name":"Cuencamé"},"geometry":{"type":"Polygon","coordinates":[[[-103.797,25.279],[-103.717,25.176],[-103.533,25.222],[-103.608,25.081],[-103.45,25.11],[-103.371,24.925],[-103.559,24.192],[-103.92,24.04],[-103.9,24.318],[-104.026,24.396],[-103.924,24.381],[-103.968,24.507],[-103.807,24.769],[-104.002,24.888],[-103.797,25.279]]]}}},{"type":"Feature","properties":{"kind":"municipality","cve_mun":"005","name":"Durango"},"geometry":{"type":"Polygon","coordinates":[[[-105.15,24.428],[-104.872,24.333],[-104.844,24.204],[-104.56,24.367],[-104.157,24.321],[-104.102,24.121],[-104.395,23.962],[-104.413,23.759],[-104.55,23.716],[-104.412,23.668],[-104.651,23.479],[-105.168,23.532],[-105.305,23.877],[-105.356,23.795],[-105.519,23.969],[-105.15,24.428]]]}}},{"type":"Feature","properties":{"kind":"municipality","cve_mun":"019","name":"El Oro"},"geometry":{"type":"Polygon","coordinates":[[[-105.385,26.113],[-105.221,25.702],[-105.068,25.698],[-105.065,25.509],[-104.7,25.328],[-104.764,25.2],[-105.125,25.165],[-105.198,25.363],[-105.35,25.327],[-105.447,25.431],[-105.575,25.67],[-105.385,26.113]]]}}},{"type":"Feature","properties":{"kind":"municipality","cve_mun":"007","name":"Gómez Palacio"},"geometry":{"type":"Polygon","coordinates":[[[-103.339,25.884],[-103.338,25.707],[-103.485,25.54],[-103.66,25.74],[-103.568,25.886],[-103.339,25.884]]]}}},{"type":"Feature","properties":{"kind":"municipality","cve_mun":"009","name":"Guanaceví"},"geometry":{"type":"Polygon","coordinates":[[[-106.206,26.512],[-106.017,26.364],[-105.877,26.45],[-105.953,26.198],[-105.752,26.002],[-105.679,26.055],[-105.655,25.839],[-105.565,25.922],[-105.494,25.899],[-105.563,25.608],[-106.179,25.769],[-106.529,25.692],[-106.42,26.119],[-106.49,26.279],[-106.392,26.237],[-106.206,26.512]]]}}},{"type":"Feature","properties":{"kind":"municipality","cve_mun":"010","name":"Hidalgo"},"geometry":{"type":"Polygon","coordinates":[[[-104.921,26.55],[-104.477,26.224],[-104.587,25.966],[-104.431,25.825],[-104.746,25.572],[-104.922,25.971],[-105.29,26.195],[-104.921,26.55]]]}}},{"type":"Feature","properties":{"kind":"municipality","cve_mun":"011","name":"Indé"},"geometry":{"type":"Polygon","coordinates":[[[-105.22,26.136],[-104.922,25.971],[-104.796,25.598],[-104.598,25.525],[-104.678,25.338],[-105.064,25.508],[-105.111,25.743],[-105.221,25.702],[-105.355,26.071],[-105.22,26.136]]]}}},{"type":"Feature","properties":{"kind":"municipality","cve_mun":"012","name":"Lerdo"},"geometry":{"type":"Polygon","coordinates":[[[-103.967,25.705],[-103.66,25.74],[-103.382,25.486],[-103.335,25.372],[-103.462,25.375],[-103.52,25.228],[-103.757,25.194],[-103.785,25.4],[-103.945,25.448],[-103.979,25.554],[-103.85,25.529],[-103.967,25.705]]]}}},{"type":"Feature","properties":{"kind":"municipality","cve_mun":"013","name":"Mapimí"},"geometry":{"type":"Polygon","coordinates":[[[-104.249,26.827],[-103.952,26.742],[-104.009,26.395],[-103.559,25.909],[-103.625,25.752],[-103.941,25.753],[-103.85,25.529],[-104.153,25.577],[-104.137,25.746],[-104.259,25.719],[-104.324,25.868],[-104.392,25.803],[-104.586,25.961],[-104.477,26.137],[-104.564,26.35],[-104.249,26.827]]]}}},{"type":"Feature","properties":{"kind":"municipality","cve_mun":"014","name":"Mezquital"},"geometry":{"type":"Polygon","coordinates":[[[-104.411,23.764],[-104.236,23.632],[-104.277,23.545],[-104.284,23.598],[-104.346,23.622],[-104.27,23.518],[-104.366,23.205],[-104.177,23.164],[-104.08,22.769],[-104.225,22.778],[-104.32,22.443],[-104.507,22.346],[-104.734,22.64],[-104.961,22.524],[-105.047,22.666],[-104.904,22.734],[-105.011,22.993],[-104.796,23.146],[-104.833,23.483],[-104.446,23.61],[-104.549,23.729],[-104.411,23.764]]]}}},{"type":"Feature","properties":{"kind":"municipality","cve_mun":"015","name":"Nazas"},"geometry":{"type":"Polygon","coordinates":[[[-104.192,25.552],[-103.785,25.4],[-103.943,24.965],[-104.376,25.072],[-104.394,25.256],[-104.146,25.329],[-104.192,25.552]]]}}},{"type":"Feature","properties":{"kind":"municipality","cve_mun":"016","name":"Nombre de Dios"},"geometry":{"type":"Polygon","coordinates":[[[-104.278,24.07],[-104.135,23.968],[-104.191,23.902],[-103.949,23.819],[-104.119,23.62],[-104.411,23.764],[-104.278,24.07]]]}}},{"type":"Feature","properties":{"kind":"municipality","cve_mun":"021","name":"Pánuco de Coronado"},"geometry":{"type":"Polygon","coordinates":[[[-104.337,24.722],[-104.173,24.451],[-104.263,24.29],[-104.56,24.367],[-104.441,24.439],[-104.538,24.567],[-104.337,24.722]]]}}},{"type":"Feature","properties":{"kind":"municipality","cve_mun":"008","name":"Guadalupe Victoria"},"geometry":{"type":"Polygon","coordinates":[[[-104.127,24.683],[-103.921,24.472],[-104.026,24.396],[-103.9,24.318],[-103.96,24.122],[-104.261,24.304],[-104.164,24.375],[-104.26,24.639],[-104.127,24.683]]]}}},{"type":"Feature","properties":{"kind":"municipality","cve_mun":"017","name":"Nuevo Ideal"},"geometry":{"type":"Polygon","coordinates":[[[-105.033,25.118],[-104.722,24.845],[-104.956,24.755],[-105.03,24.558],[-105.316,24.761],[-105.033,25.118]]]}}},{"type":"Feature","properties":{"kind":"municipality","cve_mun":"018","name":"Ocampo"},"geometry":{"type":"Polygon","coordinates":[[[-106.055,26.835],[-105.472,26.508],[-105.072,26.456],[-105.29,26.195],[-105.231,26.123],[-105.355,26.071],[-105.782,26.535],[-106.014,26.364],[-106.287,26.515],[-106.055,26.835]]]}}},{"type":"Feature","properties":{"kind":"municipality","cve_mun":"020","name":"Otáez"},"geometry":{"type":"Polygon","coordinates":[[[-105.714,24.965],[-105.552,24.761],[-105.616,24.623],[-105.977,24.501],[-106.178,24.559],[-106.204,24.798],[-106.098,24.784],[-106.039,24.936],[-105.714,24.965]]]}}},{"type":"Feature","properties":{"kind":"municipality","cve_mun":"022","name":"Peñón Blanco"},"geometry":{"type":"Polygon","coordinates":[[[-104.102,25.059],[-103.959,24.8],[-103.807,24.769],[-104.001,24.479],[-104.035,24.665],[-104.269,24.587],[-104.316,24.696],[-104.317,24.992],[-104.102,25.059]]]}}},{"type":"Feature","properties":{"kind":"municipality","cve_mun":"023","name":"Poanas"},"geometry":{"type":"Polygon","coordinates":[[[-104.118,24.25],[-103.963,24.058],[-103.781,24.065],[-103.906,23.82],[-104.254,23.982],[-104.118,24.25]]]}}},{"type":"Feature","properties":{"kind":"municipality","cve_mun":"024","name":"Pueblo Nuevo"},"geometry":{"type":"Polygon","coordinates":[[[-105.555,23.96],[-105.356,23.795],[-105.305,23.877],[-105.237,23.572],[-104.756,23.409],[-104.805,23.13],[-105.012,22.96],[-105.323,22.948],[-105.427,23.119],[-105.642,23.141],[-105.798,23.634],[-105.555,23.96]]]}}},{"type":"Feature","properties":{"kind":"municipality","cve_mun":"025","name":"Rodeo"},"geometry":{"type":"Polygon","coordinates":[[[-104.613,25.426],[-104.355,25.19],[-104.357,25.026],[-104.596,24.958],[-104.81,25.278],[-104.613,25.426]]]}}},{"type":"Feature","properties":{"kind":"municipality","cve_mun":"026","name":"San Bernardo"},"geometry":{"type":"Polygon","coordinates":[[[-105.796,26.539],[-105.385,26.113],[-105.594,25.837],[-105.722,25.942],[-105.679,26.055],[-105.752,26.002],[-105.954,26.2],[-105.796,26.539]]]}}},{"type":"Feature","properties":{"kind":"municipality","cve_mun":"027","name":"San Dimas"},"geometry":{"type":"Polygon","coordinates":[[[-105.977,24.501],[-105.335,24.65],[-105.5,24.531],[-105.247,24.219],[-105.473,24.135],[-105.499,23.941],[-105.636,23.956],[-105.722,23.665],[-105.892,23.568],[-105.896,24.037],[-106.155,24.341],[-106.158,24.544],[-105.977,24.501]]]}}},{"type":"Feature","properties":{"kind":"municipality","cve_mun":"028","name":"San Juan de Guadalupe"},"geometry":{"type":"Polygon","coordinates":[[[-102.677,25.078],[-102.527,24.848],[-102.535,24.396],[-102.854,24.431],[-103.032,24.679],[-102.843,24.734],[-102.677,25.078]]]}}},{"type":"Feature","properties":{"kind":"municipality","cve_mun":"029","name":"San Juan del Río"},"geometry":{"type":"Polygon","coordinates":[[[-104.3,25.031],[-104.257,24.775],[-104.454,24.56],[-104.584,24.573],[-104.707,24.744],[-104.596,24.958],[-104.3,25.031]]]}}},{"type":"Feature","properties":{"kind":"municipality","cve_mun":"030","name":"San Luis del Cordero"},"geometry":{"type":"Polygon","coordinates":[[[-104.139,25.505],[-104.124,25.362],[-104.279,25.252],[-104.548,25.395],[-104.139,25.505]]]}}},{"type":"Feature","properties":{"kind":"municipality","cve_mun":"031","name":"San Pedro del Gallo"},"geometry":{"type":"Polygon","coordinates":[[[-104.432,25.881],[-104.259,25.719],[-104.135,25.745],[-104.153,25.555],[-104.207,25.442],[-104.548,25.395],[-104.668,25.601],[-104.432,25.881]]]}}},{"type":"Feature","properties":{"kind":"municipality","cve_mun":"032","name":"Santa Clara"},"geometry":{"type":"Polygon","coordinates":[[[-103.414,24.786],[-103.13,24.468],[-103.594,24.277],[-103.515,24.643],[-103.429,24.623],[-103.414,24.786]]]}}},{"type":"Feature","properties":{"kind":"municipality","cve_mun":"033","name":"Santiago Papasquiaro"},"geometry":{"type":"Polygon","coordinates":[[[-105.405,25.415],[-105.198,25.363],[-105.026,25.134],[-105.316,24.761],[-105.238,24.633],[-105.616,24.623],[-105.552,24.761],[-105.714,24.965],[-106.528,24.704],[-106.614,24.981],[-106.345,25.091],[-105.893,25.107],[-105.864,25.027],[-105.405,25.415]]]}}},{"type":"Feature","properties":{"kind":"municipality","cve_mun":"006","name":"General Simón Bolívar"},"geometry":{"type":"Polygon","coordinates":[[[-103.514,25.279],[-103.137,24.833],[-102.878,24.749],[-103.032,24.679],[-102.854,24.431],[-103.155,24.446],[-103.132,24.55],[-103.414,24.786],[-103.404,25.075],[-103.608,25.081],[-103.514,25.279]]]}}},{"type":"Feature","properties":{"kind":"municipality","cve_mun":"034","name":"Súchil"},"geometry":{"type":"Polygon","coordinates":[[[-103.841,23.703],[-104.176,23.137],[-104.337,23.162],[-104.346,23.622],[-104.277,23.545],[-103.841,23.703]]]}}},{"type":"Feature","properties":{"kind":"municipality","cve_mun":"035","name":"Tamazula"},"geometry":{"type":"Polygon","coordinates":[[[-106.942,25.651],[-106.645,25.535],[-106.869,25.382],[-106.892,25.132],[-106.689,25.096],[-106.528,24.704],[-106.161,24.732],[-106.155,24.341],[-106.582,24.316],[-106.686,24.661],[-107.131,25.051],[-107.193,25.495],[-106.942,25.651]]]}}},{"type":"Feature","properties":{"kind":"municipality","cve_mun":"036","name":"Tepehuanes"},"geometry":{"type":"Polygon","coordinates":[[[-106.179,25.769],[-105.519,25.577],[-105.428,25.41],[-105.561,25.19],[-105.864,25.027],[-106.068,25.071],[-106.238,25.136],[-106.211,25.314],[-106.731,25.46],[-106.507,25.709],[-106.179,25.769]]]}}},{"type":"Feature","properties":{"kind":"municipality","cve_mun":"037","name":"Tlahualilo"},"geometry":{"type":"Polygon","coordinates":[[[-103.983,26.772],[-103.37,26.579],[-103.261,26.285],[-103.411,25.835],[-103.629,25.902],[-104.009,26.395],[-103.983,26.772]]]}}},{"type":"Feature","properties":{"kind":"municipality","cve_mun":"038","name":"Topia"},"geometry":{"type":"Polygon","coordinates":[[[-106.713,25.468],[-106.216,25.317],[-106.187,25.208],[-106.398,25.135],[-106.647,25.226],[-106.866,25.09],[-106.908,25.318],[-106.713,25.468]]]}}},{"type":"Feature","properties":{"kind":"municipality","cve_mun":"039","name":"Vicente Guerrero"},"geometry":{"type":"Polygon","coordinates":[[[-103.849,23.863],[-103.841,23.703],[-104.138,23.602],[-104.047,23.747],[-103.849,23.863]]]}}}]}